IRIDIUM 39              
1 25042U 97069D   25157.63371201  .00000487  00000+0  12221-3 0  9996
2 25042  86.3937 215.6531 0017151 349.9354  10.1504 14.49210108447697
IRIDIUM 38              
1 25043U 97069E   25157.66237411  .00000382  00000+0  11942-3 0  9997
2 25043  86.3970 237.5801 0004020 111.7277 248.4349 14.38110731444709
IRIDIUM 42              
1 25077U 97077A   25157.65565375  .00000414  00000+0  13479-3 0  9998
2 25077  86.3972 243.7400 0002778 107.1124 253.0377 14.36346153439681
IRIDIUM 44              
1 25078U 97077B   25157.43008836  .00000361  00000+0  10782-3 0  9994
2 25078  86.3980 225.7887 0004091  80.5024 279.6637 14.40235118442155
IRIDIUM 45              
1 25104U 97082A   25157.20979046  .00015528  00000+0  55756-3 0  9996
2 25104  86.3596  53.2242 0118243  14.2951 346.1588 15.22053396450370
IRIDIUM 24              
1 25105U 97082B   25157.55584175  .00000452  00000+0  13133-3 0  9993
2 25105  86.3902  84.8104 0013427 108.8326 251.4331 14.42090451441685
IRIDIUM 51              
1 25262U 98018A   25157.24085046  .00022296  00000+0  50477-3 0  9998
2 25262  86.3846  61.2513 0084213 293.2459  65.9944 15.39227610445561
IRIDIUM 57              
1 25273U 98019B   25157.71887792  .00000343  00000+0  11154-3 0  9999
2 25273  86.3966 149.6473 0002365  90.1870 269.9598 14.35887532423490
